CZ-4B R/B               
1 28415U 04035C   25294.65389074  .00011609  00000+0  44315-3 0  9992
2 28415  97.3679 325.7176 0036039 100.7467 259.7832 15.26188993158686
CZ-2C R/B               
1 28480U 04046B   25294.78840856  .00000305  00000+0  12863-3 0  9994
2 28480  98.1936 213.4090 0138942 205.1979 154.2381 14.26907513 88692
ARIANE 5 R/B            
1 28499U 04049H   25294.43030090  .00001859  00000+0  21173-3 0  9999
2 28499  98.2503  92.8530 0086022  82.4967 278.6010 14.84854762125126
CZ-2D R/B               
1 28738U 05024B   25294.80072671  .00033301  00000+0  59913-3 0  9991
2 28738  97.3684 301.0056 0006636 150.3837 209.7792 15.49744844118208
ALOS (DAICHI)           
1 28931U 06002A   25294.87309793  .00002735  00000+0  47249-3 0  9994
2 28931  98.1000 246.7599 0002004  61.3870 298.7537 14.69227226 53095
H-2A R/B                
1 28932U 06002B   25294.83253868  .00011160  00000+0  60832-3 0  9997
2 28932  98.2285  65.4161 0055806 354.0464   6.0095 15.13231608 73418
RESURS-DK 1             
1 29228U 06021A   25294.30023359  .00005058  00000+0  30208-3 0  9992
2 29228  69.9333 237.3101 0006540 307.4609  52.5961 15.11730369 66454
CZ-4B R/B               
1 29507U 06046C   25294.67385948  .00007665  00000+0  40631-3 0  9991
2 29507  97.5810 334.9573 0035331  31.2315 329.1006 15.15123213 38982
CZ-2C R/B               
1 31114U 07010B   25294.79482764  .00000216  00000+0  11837-3 0  9998
2 31114  98.3940  50.0705 0058567 339.1446  20.7343 14.20179505960001
COSMO-SKYMED 1          
1 31598U 07023A   25294.79970642  .00005110  00000+0  46986-3 0  9996
2 31598  97.8865 119.8735 0001462  89.7034 270.4353 14.95228124994137
COSMOS 2428             
1 31792U 07029A   25294.84353253 -.00000208  00000+0 -86073-4 0  9994
2 31792  70.9376 134.8310 0001806 143.6694 216.4550 14.12896252944486
SL-16 R/B               
1 31793U 07029B   25294.85550240 -.00000090  00000+0 -21796-4 0  9991
2 31793  70.9734 104.2178 0002689 265.1788 196.1864 14.14804774945733
KORONAS-FOTON           
1 33504U 09003A   25294.78443362  .00019503  00000+0  49507-3 0  9991
2 33504  82.4324  59.8578 0010761 298.3470  61.6689 15.39473738924348
CZ-2C R/B               
1 37731U 11030B   25294.83101411  .00002575  00000+0  33372-3 0  9996
2 37731  97.8321 250.1231 0054805  82.4123 333.2275 14.80626710769540
H-2A R/B                
1 38341U 12025E   25294.80715243  .00005842  00000+0  54396-3 0  9999
2 38341  98.4506 246.0809 0046921  48.1785 312.3425 14.93884867727472
SHIJIAN-16 (SJ-16)      
1 39358U 13057A   25294.83131683  .00002051  00000+0  20613-3 0  9991
2 39358  74.9708  87.8472 0015956  89.5803 270.7214 14.91710761650797
SL-4 R/B                
1 39679U 14021B   25294.42546193  .00021754  00000+0  54004-3 0  9992
2 39679  51.6077 294.4617 0105919 317.4980  41.7837 15.34628750634859
ALOS-2                  
1 39766U 14029A   25294.86858723  .00000922  00000+0  13023-3 0  9990
2 39766  97.9232  30.4532 0001549 101.7322 258.4063 14.79496478616344
YAOGAN-29               
1 41038U 15069A   25294.86060324  .00000811  00000+0  10703-3 0  9991
2 41038  98.0277 317.8502 0002875  85.0721 275.0821 14.82796630535309
ASTRO-H (HITOMI)        
1 41337U 16012A   25294.37205463  .00005626  00000+0  34232-3 0  9995
2 41337  30.9993 174.8478 0010043  10.5362 349.5485 15.08879888531163
HXMT (HUIYAN)           
1 42758U 17034A   25294.86690803  .00007851  00000+0  41529-3 0  9997
2 42758  43.0144  67.3008 0031805  77.4248 283.0154 15.15390781461461
CZ-2C R/B               
1 43521U 18054D   25294.73495612  .00082270  00000+0  82736-3 0  9999
2 43521  35.1352 170.6464 0028055   0.1743 359.8993 15.63700406406883
SAOCOM 1A               
1 43641U 18076A   25294.82383964  .00000872  00000+0  11609-3 0  9991
2 43641  97.8875 119.9949 0001447  86.4779 273.6600 14.82159019380794
H-2A R/B                
1 43682U 18084L   25294.77555286  .00023606  00000+0  69026-3 0  9993
2 43682  98.8815 118.1908 0029431 142.6538 217.6754 15.34860031384424
SAOCOM 1B               
1 46265U 20059A   25294.85508786  .00000849  00000+0  11323-3 0  9991
2 46265  97.8869 119.1294 0001366  88.6180 271.5190 14.82150081278187
CSS (TIANHE)            
1 48274U 21035A   25294.59181052  .00040339  00000+0  47896-3 0  9994
2 48274  41.4670 333.5355 0011431 256.9490 103.0072 15.60336485255883
COSMOS 2550             
1 48865U 21056A   25294.88603431 -.00000195  00000+0 -10554-6 0  9997
2 48865  67.1418 100.8387 0008338 270.2961  89.7238 15.33832523242174
CZ-2C R/B               
1 52794U 22058K   25294.34686475  .00032990  00000+0  66088-3 0  9992
2 52794  50.1919 310.0146 0051839 339.8127  20.0789 15.44921241188521
GSLV R/B                
1 54149U 22138AN  25294.81249503  .00004772  00000+0  42507-3 0  9993
2 54149  87.3861 212.8470 0019395 300.8795  59.0528 14.95692457163169
XRISM                   
1 57800U 23137A   25294.47891512  .00007278  00000+0  43670-3 0  9991
2 57800  31.0010 102.7548 0008256  77.6832 282.4730 15.09528220116725
ACS3                    
1 59588U 24077B   25294.84090391  .00022164  00000+0  20401-1 0  9993
2 59588  97.3576 261.9065 0021574  19.9847 340.2153 13.82484950 74968
